{"type": "FeatureCollection", "features": [ {"type": "Feature", "properties": {"norad_id": 17070, "name": "POLAR BEAR", "group": "nnss", "lat": -40.106936371344176, "lon": 3.9108009640834274, "alt_km": 999.6653927994739, "timestamp": "2025-12-17T09:00:17.416961+00:00", "meta": {"OBJECT_NAME": "POLAR BEAR", "OBJECT_ID": "1986-088A", "EPOCH": "2025-12-17T00:00:15.991776", "MEAN_MOTION": 13.7525166, "ECCENTRICITY": 0.00411808, "INCLINATION": 89.6171, "RA_OF_ASC_NODE": 183.6032, "ARG_OF_PERICENTER": 106.9515, "MEAN_ANOMALY": 57.0909, "EPHEMERIS_TYPE": 0, "CLASSIFICATION_TYPE": "U", "NORAD_CAT_ID": 17070, "ELEMENT_SET_NO": 999, "REV_AT_EPOCH": 96037, "BSTAR": 0.00011488166, "MEAN_MOTION_DOT": 1.22e-06, "MEAN_MOTION_DDOT": 0}, "tle": {"line1": "1 17070U 86088A   25351.00018509  .00000122  00000+0  11488-3 0  9993", "line2": "2 17070  89.6171 183.6032 0041180 106.9515  57.0909 13.75251660960374"}}, "geometry": {"type": "Point", "coordinates": [3.9108009640834274, -40.106936371344176]}}, {"type": "Feature", "properties": {"norad_id": 18361, "name": "OSCAR 27", "group": "nnss", "lat": -27.735192093438293, "lon": 79.64271238069254, "alt_km": 1137.075535891161, "timestamp": "2025-12-17T09:00:17.416971+00:00", "meta": {"OBJECT_NAME": "OSCAR 27", "OBJECT_ID": "1987-080A", "EPOCH": "2025-12-16T18:51:35.238528", "MEAN_MOTION": 13.44907501, "ECCENTRICITY": 0.01032286, "INCLINATION": 90.3742, "RA_OF_ASC_NODE": 79.4238, "ARG_OF_PERICENTER": 212.1097, "MEAN_ANOMALY": 147.3737, "EPHEMERIS_TYPE": 0, "CLASSIFICATION_TYPE": "U", "NORAD_CAT_ID": 18361, "ELEMENT_SET_NO": 999, "REV_AT_EPOCH": 87611, "BSTAR": 0.00014292275, "MEAN_MOTION_DOT": 9.4e-07, "MEAN_MOTION_DDOT": 0}, "tle": {"line1": "1 18361U 87080A   25350.78582452  .00000094  00000+0  14292-3 0  9991", "line2": "2 18361  90.3742  79.4238 0103228 212.1097 147.3737 13.44907501876116"}}, "geometry": {"type": "Point", "coordinates": [79.64271238069254, -27.735192093438293]}}, {"type": "Feature", "properties": {"norad_id": 18362, "name": "OSCAR 29", "group": "nnss", "lat": -23.027470850719205, "lon": 80.0645335031143, "alt_km": 1115.3801812284, "timestamp": "2025-12-17T09:00:17.416982+00:00", "meta": {"OBJECT_NAME": "OSCAR 29", "OBJECT_ID": "1987-080B", "EPOCH": "2025-12-16T19:24:57.585312", "MEAN_MOTION": 13.44449136, "ECCENTRICITY": 0.01041378, "INCLINATION": 90.3753, "RA_OF_ASC_NODE": 79.8837, "ARG_OF_PERICENTER": 235.3453, "MEAN_ANOMALY": 241.768, "EPHEMERIS_TYPE": 0, "CLASSIFICATION_TYPE": "U", "NORAD_CAT_ID": 18362, "ELEMENT_SET_NO": 999, "REV_AT_EPOCH": 87564, "BSTAR": 0.0001315896, "MEAN_MOTION_DOT": 8.7e-07, "MEAN_MOTION_DDOT": 0}, "tle": {"line1": "1 18362U 87080B   25350.80899983  .00000087  00000+0  13159-3 0  9998", "line2": "2 18362  90.3753  79.8837 0104137 235.3453 241.7680 13.44449136875649"}}, "geometry": {"type": "Point", "coordinates": [80.0645335031143, -23.027470850719205]}}, {"type": "Feature", "properties": {"norad_id": 19070, "name": "OSCAR 23", "group": "nnss", "lat": -14.723867624581468, "lon": -163.54791649297002, "alt_km": 1032.3659761855542, "timestamp": "2025-12-17T09:00:17.416992+00:00", "meta": {"OBJECT_NAME": "OSCAR 23", "OBJECT_ID": "1988-033A", "EPOCH": "2025-12-16T20:14:23.839872", "MEAN_MOTION": 13.27787749, "ECCENTRICITY": 0.01898676, "INCLINATION": 90.3209, "RA_OF_ASC_NODE": 16.5199, "ARG_OF_PERICENTER": 168.5202, "MEAN_ANOMALY": 4.2173, "EPHEMERIS_TYPE": 0, "CLASSIFICATION_TYPE": "U", "NORAD_CAT_ID": 19070, "ELEMENT_SET_NO": 999, "REV_AT_EPOCH": 82307, "BSTAR": 0.00015315444, "MEAN_MOTION_DOT": 8.5e-07, "MEAN_MOTION_DDOT": 0}, "tle": {"line1": "1 19070U 88033A   25350.84333148  .00000085  00000+0  15315-3 0  9998", "line2": "2 19070  90.3209  16.5199 0189867 168.5202   4.2173 13.27787749823078"}}, "geometry": {"type": "Point", "coordinates": [-163.54791649297002, -14.723867624581468]}}, {"type": "Feature", "properties": {"norad_id": 19071, "name": "OSCAR 32", "group": "nnss", "lat": -52.394029958963365, "lon": 17.086091895528817, "alt_km": 1288.4603833643305, "timestamp": "2025-12-17T09:00:17.417002+00:00", "meta": {"OBJECT_NAME": "OSCAR 32", "OBJECT_ID": "1988-033B", "EPOCH": "2025-12-17T00:33:18.312768", "MEAN_MOTION": 13.27954583, "ECCENTRICITY": 0.01886801, "INCLINATION": 90.3214, "RA_OF_ASC_NODE": 16.6576, "ARG_OF_PERICENTER": 154.915, "MEAN_ANOMALY": 269.6423, "EPHEMERIS_TYPE": 0, "CLASSIFICATION_TYPE": "U", "NORAD_CAT_ID": 19071, "ELEMENT_SET_NO": 999, "REV_AT_EPOCH": 82322, "BSTAR": 0.00016252631, "MEAN_MOTION_DOT": 9e-07, "MEAN_MOTION_DDOT": 0}, "tle": {"line1": "1 19071U 88033B   25351.02312862  .00000090  00000+0  16253-3 0  9998", "line2": "2 19071  90.3214  16.6576 0188680 154.9150 269.6423 13.27954583823222"}}, "geometry": {"type": "Point", "coordinates": [17.086091895528817, -52.394029958963365]}}, {"type": "Feature", "properties": {"norad_id": 19223, "name": "NOVA 2", "group": "nnss", "lat": 60.55526387864071, "lon": 78.28945193040009, "alt_km": 1155.0377722764706, "timestamp": "2025-12-17T09:00:17.417012+00:00", "meta": {"OBJECT_NAME": "NOVA 2", "OBJECT_ID": "1988-052A", "EPOCH": "2025-12-17T00:29:59.597088", "MEAN_MOTION": 13.22936309, "ECCENTRICITY": 0.00302249, "INCLINATION": 89.9872, "RA_OF_ASC_NODE": 78.2672, "ARG_OF_PERICENTER": 5.1764, "MEAN_ANOMALY": 168.3928, "EPHEMERIS_TYPE": 0, "CLASSIFICATION_TYPE": "U", "NORAD_CAT_ID": 19223, "ELEMENT_SET_NO": 999, "REV_AT_EPOCH": 81004, "BSTAR": 0.00011588773, "MEAN_MOTION_DOT": 5.7e-07, "MEAN_MOTION_DDOT": 0}, "tle": {"line1": "1 19223U 88052A   25351.02082867  .00000057  00000+0  11589-3 0  9997", "line2": "2 19223  89.9872  78.2672 0030224   5.1764 168.3928 13.22936309810046"}}, "geometry": {"type": "Point", "coordinates": [78.28945193040009, 60.55526387864071]}}, {"type": "Feature", "properties": {"norad_id": 19419, "name": "OSCAR 25", "group": "nnss", "lat": 76.22460649149814, "lon": -159.60009922469976, "alt_km": 1136.241701906877, "timestamp": "2025-12-17T09:00:17.417023+00:00", "meta": {"OBJECT_NAME": "OSCAR 25", "OBJECT_ID": "1988-074A", "EPOCH": "2025-12-16T23:51:06.804864", "MEAN_MOTION": 13.42624137, "ECCENTRICITY": 0.00946536, "INCLINATION": 90.0344, "RA_OF_ASC_NODE": 20.2582, "ARG_OF_PERICENTER": 233.5052, "MEAN_ANOMALY": 188.8394, "EPHEMERIS_TYPE": 0, "CLASSIFICATION_TYPE": "U", "NORAD_CAT_ID": 19419, "ELEMENT_SET_NO": 999, "REV_AT_EPOCH": 82697, "BSTAR": 0.0001773663, "MEAN_MOTION_DOT": 1.12e-06, "MEAN_MOTION_DDOT": 0}, "tle": {"line1": "1 19419U 88074A   25350.99382876  .00000112  00000+0  17737-3 0  9999", "line2": "2 19419  90.0344  20.2582 0094653 233.5052 188.8394 13.42624137826978"}}, "geometry": {"type": "Point", "coordinates": [-159.60009922469976, 76.22460649149814]}}, {"type": "Feature", "properties": {"norad_id": 19420, "name": "OSCAR 31", "group": "nnss", "lat": -11.482412439242625, "lon": 20.6175977831685, "alt_km": 1140.4512274938952, "timestamp": "2025-12-17T09:00:17.417033+00:00", "meta": {"OBJECT_NAME": "OSCAR 31", "OBJECT_ID": "1988-074B", "EPOCH": "2025-12-17T00:25:35.508576", "MEAN_MOTION": 13.4258527, "ECCENTRICITY": 0.00929974, "INCLINATION": 90.036, "RA_OF_ASC_NODE": 20.609, "ARG_OF_PERICENTER": 227.5741, "MEAN_ANOMALY": 193.6051, "EPHEMERIS_TYPE": 0, "CLASSIFICATION_TYPE": "U", "NORAD_CAT_ID": 19420, "ELEMENT_SET_NO": 999, "REV_AT_EPOCH": 82708, "BSTAR": 0.00015621007, "MEAN_MOTION_DOT": 9.9e-07, "MEAN_MOTION_DDOT": 0}, "tle": {"line1": "1 19420U 88074B   25351.01777209  .00000099  00000+0  15621-3 0  9997", "line2": "2 19420  90.0360  20.6090 0092997 227.5741 193.6051 13.42585270827084"}}, "geometry": {"type": "Point", "coordinates": [20.6175977831685, -11.482412439242625]}}]}